UNKNOWN                 
1 82227U          22329.42729359  .00000043  00000+0  63729-3 0  9996
2 82227 101.8995 297.7857 0004111 354.5099 158.1430 12.42011538502942
UNKNOWN                 
1 82250U          22329.55680851  .00002271  00000+0  14702-2 0  9990
2 82250  98.9385 232.3614 0082899  71.9885  50.3235 14.02083285460030
UNKNOWN                 
1 82272U          22328.27362087 -.00000148  00000+0 -32470-3 0  9996
2 82272  67.5262  56.9317 0756018  99.0692 269.6571 12.32329930134552
UNKNOWN                 
1 82284U          22328.47770263  .00005492  00000+0  19876-2 0  9999
2 82284  99.5683 156.4894 0100697  49.7577 311.2357 14.31109861511817
UNKNOWN                 
1 82285U          22327.98593595  .00003180  00000+0  31355-2 0  9994
2 82285 101.9887 156.8879 0342213 221.2741 136.2056 13.56703345443831
UNKNOWN                 
1 82295U          22328.02702791  .00000518  00000+0  22821-3 0  9992
2 82295  66.6223 188.0246 0136768 287.3623  71.2553 14.26340938420485
UNKNOWN                 
1 82303U          22326.60909691  .00008067  00000+0  16372-1 0  9991
2 82303  81.9630 194.4959 0079394 319.9333  66.7978 13.32263013363312
UNKNOWN                 
1 82311U          22328.20335899  .00000657  00000+0  10176-2 0  9995
2 82311  99.5076  54.0703 0112837 230.7605 128.3475 13.52375308399555
UNKNOWN                 
1 82314U          22329.48270161  .00044864  00000+0  13005-2 0  9991
2 82314  99.2309 152.0964 0142247 248.4994 110.1023 15.25884313374146
UNKNOWN                 
1 82322U          22327.17042484  .00004708  00000+0  10556-2 0  9990
2 82322  98.5619  46.7709 0072555 262.3049  96.9903 14.55480048402371
UNKNOWN                 
1 82363U          22326.62285408  .00000268  00000+0  52235-3 0  9997
2 82363  66.9404  60.6413 0461252 157.8609 204.3082 13.14082011143535
UNKNOWN                 
1 82369U 99025    22329.34103724 -.00000127  00000+0 -58351-4 0  9992
2 82369  98.9931 357.7140 0084715 168.4679 191.8450 13.97168920401641
UNKNOWN                 
1 82381U          22328.52780255  .00003506  00000+0  10890-2 0  9996
2 82381  98.4704 163.4409 0018060 334.4982  25.5314 14.41583639348583
UNKNOWN                 
1 82383U          22328.12499048  .00017390  00000+0  18203-2 0  9993
2 82383  98.2625  32.5142 0004928 237.8231 122.2508 14.89670593381716
UNKNOWN                 
1 82402U          22329.25400859  .00001674  00000+0  18470-3 0  9997
2 82402  86.6680 269.2235 0009285 198.4481 161.6409 14.86824783288219
UNKNOWN                 
1 82410U          22328.85330900  .00000131  00000+0  20795-3 0  9990
2 82410  66.6556 130.2654 0057757  46.2814 314.3019 13.76236983433401
UNKNOWN                 
1 82428U          22329.22565857  .00018225  00000+0  13234-1 0  9993
2 82428  63.1694  20.0891 0083452  44.1447 316.6222 13.94741106265765
UNKNOWN                 
1 82432U 93036    22329.31382575  .00001075  00000+0  27080-3 0  9994
2 82432  74.0086 290.8907 0062792   4.0768 356.0890 14.51246930321004
UNKNOWN                 
1 82448U          22329.24391265  .00001585  00000+0  17474-3 0  9990
2 82448  85.8801  65.3197 0008699 275.8494  84.1739 14.86797514270777
UNKNOWN                 
1 82453U          22329.13994242 -.00000001  00000+0  31814-3 0  9995
2 82453 102.0178 277.6925 0093975 107.3274 253.8095 12.39559887408076
UNKNOWN                 
1 82458U          22322.90569791  .00001745  00000+0  10027-2 0  9992
2 82458  66.5121 189.4455 0060982  40.7326 319.8297 14.10759270451457
UNKNOWN                 
1 82464U          22327.45775037  .00004159  00000+0  11277-2 0  9996
2 82464  71.0003  20.9566 0076185  43.1446 333.4314 14.46497798472568
UNKNOWN                 
1 82475U          22326.91087861  .00001657  00000+0  99125-3 0  9998
2 82475  99.1123   9.7575 0104088 331.4973  28.0526 14.05879458389078
UNKNOWN                 
1 82484U          22328.97676750  .00000125  00000+0  24109-3 0  9996
2 82484  99.4921  25.1353 0046074 131.4636 229.0472 13.55191806439748
UNKNOWN                 
1 82494U 93036    22328.51581521  .00002746  00000+0  69078-3 0  9994
2 82494  74.0221   8.2527 0009912  28.5351 331.6351 14.51671987320482
UNKNOWN                 
1 82500U          22328.32348203  .00001904  00000+0  10930-2 0  9995
2 82500  70.9714 175.2657 0142320 352.3520   7.5424 14.05644386461699
UNKNOWN                 
1 82517U          22329.06870370  .00005866  00000+0  15105-2 0  9990
2 82517  86.3903 197.5471 0023158 332.5135  27.4843 14.49823069262283
UNKNOWN                 
1 82524U          22328.87178251  .00002246  00000+0  98440-3 0  9998
2 82524  73.2904 121.9591 0174267 294.8450 217.3747 14.16601157418405
UNKNOWN                 
1 82526U          22313.35576287  .00003718  00000+0  23372-2 0  9994
2 82526  99.2179   2.3835 0104942 205.6396 153.9544 14.02323464363174
UNKNOWN                 
1 82529U          22329.25913101 -.00000260  00000+0 -34278-3 0  9992
2 82529  99.7973  72.9255 0245123  71.6554 317.7418 13.38902114440615
UNKNOWN                 
1 82545U          22328.32764762 -.00000010  00000+0  89744-3 0  9994
2 82545  64.8810 178.1413 0170250 148.7905 212.3264 11.30785867312908
UNKNOWN                 
1 82560U          22325.08073279  .00000873  00000+0  80079-3 0  9995
2 82560 100.0269 173.4134 0011229 359.1405 157.5227 13.86100050456790
UNKNOWN                 
1 82561U          22329.28865931  .00001840  00000+0  51766-3 0  9992
2 82561  63.1090 167.5158 0516747  16.3858 156.9388 13.91302264456249
UNKNOWN                 
1 82576U          22329.06373106  .00001362  00000+0  88577-3 0  9991
2 82576  99.2298   5.7440 0120539 197.0042 162.7067 14.00790415 77882
UNKNOWN                 
1 82597U          22329.29244374  .00000685  00000+0  28801-3 0  9994
2 82597  66.7720 182.7362 0098138  53.7464 307.2653 14.29102193469533
UNKNOWN                 
1 82616U          22328.59873536  .00019556  00000+0  17959-2 0  9994
2 82616  97.2805  27.5057 0072483  15.6955 344.6489 14.92840753400754
UNKNOWN                 
1 82617U          22329.24647105  .00000288  00000+0  86685-4 0  9995
2 82617  74.0268 168.6988 0040087  25.8175 334.4972 14.46598698475666
UNKNOWN                 
1 82627U          22329.43115490  .00000111  00000+0  26926-3 0  9990
2 82627  82.4756 320.9840 0011120   2.4963 152.0867 13.14118183432485
UNKNOWN                 
1 82642U          22320.44994262  .00001243  00000+0  79814-3 0  9992
2 82642  98.9941 228.0538 0143634 116.7813 244.8127 14.00091527458712
UNKNOWN                 
1 82683U 99057    22328.17488137  .00000544  00000+0  23858-3 0  9994
2 82683  98.1452 108.4357 0226651  43.1695 318.7004 14.14342320304404
UNKNOWN                 
1 82693U          22329.30834316  .00001478  00000+0  19887-2 0  9998
2 82693 100.5267 183.0189 0047880 262.2165  97.3535 13.61403491401832
UNKNOWN                 
1 82698U          22328.99984578  .00000117  00000+0  13377-3 0  9991
2 82698  61.6135 235.6508 0713844 244.3570 108.2047 13.22341371390717
UNKNOWN                 
1 82708U          22327.66454950  .00000811  00000+0  33856-2 0  9996
2 82708 102.1449  51.4965 0061141  16.2086 344.0943 12.87634016379840
UNKNOWN                 
1 82729U          22328.14359045  .00001756  00000+0  60916-2 0  9998
2 82729  67.9574 270.6908 0832826  52.7724 314.6352 12.16369671399575
UNKNOWN                 
1 82737U          22329.48756993  .00013154  00000+0  16193-1 0  9990
2 82737 102.8415 164.2233 0297062  70.0180 293.2672 13.48492443395025
UNKNOWN                 
1 82739U          22329.02918144  .00000939  00000+0  87671-3 0  9998
2 82739  99.0238 157.7749 0181406  25.2649 130.1541 13.77190763452527
UNKNOWN                 
1 82741U          22329.04729320  .00001401  00000+0  17553-2 0  9995
2 82741 102.8661 359.7380 0214921 223.1214 135.2902 13.57849459445490
UNKNOWN                 
1 82755U          22329.47884382  .00037158  00000+0  40857-2 0  9998
2 82755  99.8022 153.7996 0003163 306.9504  53.1415 14.87491441480799
UNKNOWN                 
1 82783U          22324.81276735  .00000868  00000+0  25755-2 0  9997
2 82783  90.3090   4.6573 0021413 232.7981 127.1191 13.07234680358203
UNKNOWN                 
1 82785U          22325.12284456  .00007012  00000+0  92779-3 0  9992
2 82785  63.1226   7.3038 0388132  56.8668 306.9021 14.39736974469516
UNKNOWN                 
1 82798U          22323.85501412  .00001289  00000+0  65311-3 0  9990
2 82798  82.9546   2.2954 0031811 286.2327 252.1817 14.15127635153725
UNKNOWN                 
1 82820U          22329.48335960  .00001360  00000+0  62137-3 0  9997
2 82820  99.8091 342.0026 0058953 277.2574  82.1901 14.22593368466751
UNKNOWN                 
1 82829U          22328.68337008 -.00000030  00000+0  31606-3 0  9993
2 82829  65.1001  46.7780 0179530 222.2372 296.3059 11.28921854360308
UNKNOWN                 
1 82854U          22321.00893430  .00001189  00000+0  10255-2 0  9997
2 82854  82.6928 219.6870 0129745 206.6718 152.7731 13.82053639924916
UNKNOWN                 
1 82873U          22327.21302316  .00001819  00000+0  10041-2 0  9998
2 82873  99.9935  64.4060 0046817 117.2739 243.3208 14.12424809463112
UNKNOWN                 
1 82875U          22329.30282693  .00000313  00000+0  99415-4 0  9999
2 82875  98.6068 332.7796 0391192 231.3512 125.2046 14.11294153387210
UNKNOWN                 
1 82893U          22328.18461590  .00002745  00000+0  15815-2 0  9990
2 82893  98.9711  54.7957 0031470 346.2293  13.8015 14.09730382265893
UNKNOWN                 
1 82912U          22327.90879670  .00001683  00000+0  80705-3 0  9994
2 82912  65.8398 197.4997 0810841  55.5762 311.9230 13.16397150889135
UNKNOWN                 
1 82915U          22328.42602840  .00024130  00000+0  26638-2 0  9994
2 82915  74.0109 249.9126 0026731 203.4918 156.5043 14.87111823318694
UNKNOWN                 
1 82959U          22327.97653759  .00000635  00000+0  38308-3 0  9998
2 82959 100.1091 342.3482 0052264  52.4748 308.1151 14.10391029386479
